GECAM-B                 
1 47235U 20094B   26058.19405615  .00003224  00000+0  23073-3 0  9996
2 47235  28.9982  10.8844 0010635 257.2071 102.7339 15.01652363285175
STARLINK-34988          
1 65453U 25194V   26068.61370029  .00002505  00000+0  19946-3 0  9997
2 65453  97.6042 285.4211 0002492  53.9876 306.1579 15.01260784 29704
